[{"OBJECT_NAME":"YUNHAI-2 02C","OBJECT_ID":"2024-052C","EPOCH":"2026-03-09T21:21:30.207744","MEAN_MOTION":14.27924657,"ECCENTRICITY":0.00066764,"INCLINATION":50.0079,"RA_OF_ASC_NODE":203.2069,"ARG_OF_PERICENTER":173.1854,"MEAN_ANOMALY":186.9153,"EPHEMERIS_TYPE":0,"CLASSIFICATION_TYPE":"U","NORAD_CAT_ID":59282,"ELEMENT_SET_NO":999,"REV_AT_EPOCH":10061,"BSTAR":0.00014036663,"MEAN_MOTION_DOT":1.89e-6,"MEAN_MOTION_DDOT":0},{"OBJECT_NAME":"FENGYUN 1C DEB","OBJECT_ID":"1999-025CRK","EPOCH":"2026-03-07T08:16:02.385984","MEAN_MOTION":14.24375453,"ECCENTRICITY":0.00279536,"INCLINATION":98.6023,"RA_OF_ASC_NODE":114.9463,"ARG_OF_PERICENTER":200.5222,"MEAN_ANOMALY":159.4837,"EPHEMERIS_TYPE":0,"CLASSIFICATION_TYPE":"U","NORAD_CAT_ID":32117,"ELEMENT_SET_NO":999,"REV_AT_EPOCH":96001,"BSTAR":0.0012365017,"MEAN_MOTION_DOT":2.829e-5,"MEAN_MOTION_DDOT":0}]
